[{"OBJECT_NAME":"STARLINK-3791","OBJECT_ID":"2022-041J","EPOCH":"2026-03-09T11:52:31.376640","MEAN_MOTION":15.08839939,"ECCENTRICITY":0.00013718,"INCLINATION":53.2168,"RA_OF_ASC_NODE":109.9949,"ARG_OF_PERICENTER":89.2886,"MEAN_ANOMALY":270.8264,"EPHEMERIS_TYPE":0,"CLASSIFICATION_TYPE":"U","NORAD_CAT_ID":52269,"ELEMENT_SET_NO":999,"REV_AT_EPOCH":21433,"BSTAR":3.3938426e-5,"MEAN_MOTION_DOT":2.52e-6,"MEAN_MOTION_DDOT":0},{"OBJECT_NAME":"DELTA 1 DEB","OBJECT_ID":"1977-065EC","EPOCH":"2026-03-09T02:08:40.996032","MEAN_MOTION":13.78682297,"ECCENTRICITY":0.05923881,"INCLINATION":29.1022,"RA_OF_ASC_NODE":69.0593,"ARG_OF_PERICENTER":230.0658,"MEAN_ANOMALY":124.6392,"EPHEMERIS_TYPE":0,"CLASSIFICATION_TYPE":"U","NORAD_CAT_ID":10470,"ELEMENT_SET_NO":999,"REV_AT_EPOCH":39795,"BSTAR":0.00059129389,"MEAN_MOTION_DOT":2.469e-5,"MEAN_MOTION_DDOT":0}]
